NORAD_CAT_ID,OBJECT_NAME,OBJECT_TYPE,EPOCH,MEAN_MOTION,ECCENTRICITY,INCLINATION,RA_OF_ASC_NODE,ARG_OF_PERICENTER,MEAN_ANOMALY,BSTAR,MEAN_MOTION_DOT,MEAN_MOTION_DDOT,TLE_LINE0,TLE_LINE1,TLE_LINE2,SEMIMAJOR_AXIS,PERIOD,APOGEE,PERIGEE,DECAYED
53431.0,STARLINK-4548,PAYLOAD,2024-01-21 22:14:47,15.0884592,0.0001817,53.2193,355.2509,109.7967,250.3221,7.9786e-05,9.82e-06,0.0,0 STARLINK-4548,1 53431U 22097AV  24021.92693998  .00000982  00000-0  79786-4 0  9990,2 53431  53.2193 355.2509 0001817 109.7967 250.3221 15.08845920 81372,6917.862,95.437,540.984,538.47,0.0
53431.0,STARLINK-4548,PAYLOAD,2024-01-22 03:00:56,15.08849411,0.0001904,53.2185,354.3591,124.2681,235.8492,0.00017829,2.551e-05,0.0,0 STARLINK-4548,1 53431U 22097AV  24022.12565717  .00002551  00000-0  17829-3 0  9993,2 53431  53.2185 354.3591 0001904 124.2681 235.8492 15.08849411 80923,6917.852,95.437,541.034,538.399,0.0
53431.0,STARLINK-4548,PAYLOAD,2024-01-22 04:36:19,15.0885154,0.000192,53.2183,354.0616,123.3687,236.749,0.00023408,3.44e-05,0.0,0 STARLINK-4548,1 53431U 22097AV  24022.19189669  .00003440  00000-0  23408-3 0  9996,2 53431  53.2183 354.0616 0001920 123.3687 236.7490 15.08851540 81419,6917.845,95.437,541.038,538.382,0.0
53431.0,STARLINK-4548,PAYLOAD,2024-01-22 07:47:05,15.08857853,0.0001721,53.218,353.4653,109.1752,250.9427,0.00030204,4.524e-05,0.0,0 STARLINK-4548,1 53431U 22097AV  24022.32437368  .00004524  00000-0  30204-3 0  9999,2 53431  53.2180 353.4653 0001721 109.1752 250.9427 15.08857853 80953,6917.826,95.436,540.881,538.5,0.0
53431.0,STARLINK-4548,PAYLOAD,2024-01-23 02:51:44,15.08841348,0.0001716,53.2176,349.8918,116.5328,243.584,5.5134e-05,5.9e-06,0.0,0 STARLINK-4548,1 53431U 22097AV  24023.11926010  .00000590  00000-0  55134-4 0  9993,2 53431  53.2176 349.8918 0001716 116.5328 243.5840 15.08841348 81079,6917.876,95.437,540.928,538.554,0.0
53431.0,STARLINK-4548,PAYLOAD,2024-01-23 04:27:06,15.0884579,0.0001561,53.2184,349.5915,113.1453,246.9703,4.3428e-05,4.03e-06,0.0,0 STARLINK-4548,1 53431U 22097AV  24023.18549713  .00000403  00000-0  43428-4 0  9997,2 53431  53.2184 349.5915 0001561 113.1453 246.9703 15.08845790 81566,6917.863,95.437,540.808,538.648,0.0
53431.0,STARLINK-4548,PAYLOAD,2024-01-24 02:42:30,15.08848879,0.0001684,53.2182,345.4287,110.8327,249.2845,-8.7583e-06,-4.28e-06,0.0,0 STARLINK-4548,1 53431U 22097AV  24024.11285484 -.00000428  00000-0 -87583-5 0  9993,2 53431  53.2182 345.4287 0001684 110.8327 249.2845 15.08848879 81701,6917.853,95.437,540.883,538.553,0.0
53431.0,STARLINK-4548,PAYLOAD,2024-01-25 02:33:18,15.08836872,0.0001657,53.2187,340.9793,111.9256,248.1912,-9.7546e-06,-4.43e-06,0.0,0 STARLINK-4548,1 53431U 22097AV  24025.10646217 -.00000443  00000-0 -97546-5 0  9995,2 53431  53.2187 340.9793 0001657 111.9256 248.1912 15.08836872 81377,6917.89,95.438,540.901,538.609,0.0
53431.0,STARLINK-4548,PAYLOAD,2024-01-26 03:59:29,15.08793748,0.000162,53.218,336.2164,84.5485,275.5692,0.00076334,0.00011866,0.0,0 STARLINK-4548,1 53431U 22097AV  24026.16631730  .00011866  00000-0  76334-3 0  9995,2 53431  53.2180 336.2164 0001620  84.5485 275.5692 15.08793748 81530,6918.022,95.44,541.007,538.766,0.0
53431.0,STARLINK-4548,PAYLOAD,2024-01-26 19:53:20,15.08836211,0.0001385,53.2179,333.2474,77.5066,282.6081,0.00014913,2.086e-05,0.0,0 STARLINK-4548,1 53431U 22097AV  24026.82870931  .00002086  00000-0  14913-3 0  9995,2 53431  53.2179 333.2474 0001385  77.5066 282.6081 15.08836211 81639,6917.892,95.438,540.715,538.799,0.0
53431.0,STARLINK-4548,PAYLOAD,2024-01-27 03:50:16,15.0881562,0.0001758,53.2192,331.7627,73.54,286.5786,0.00061511,9.509e-05,0.0,0 STARLINK-4548,1 53431U 22097AV  24027.15991510  .00009509  00000-0  61511-3 0  9992,2 53431  53.2192 331.7627 0001758  73.5400 286.5786 15.08815620 81680,6917.955,95.439,541.036,538.604,0.0
53431.0,STARLINK-4548,PAYLOAD,2024-01-28 03:41:03,15.08840949,0.0001611,53.2184,327.3016,75.8261,284.291,6.6722e-05,7.74e-06,0.0,0 STARLINK-4548,1 53431U 22097AV  24028.15351262  .00000774  00000-0  66722-4 0  9992,2 53431  53.2184 327.3016 0001611  75.8261 284.2910 15.08840949 81835,6917.877,95.437,540.857,538.628,0.0
53431.0,STARLINK-4548,PAYLOAD,2024-01-28 05:16:26,15.08844698,0.0001473,53.2179,327.0023,83.8184,276.2976,9.6253e-05,1.244e-05,0.0,0 STARLINK-4548,1 53431U 22097AV  24028.21974898  .00001244  00000-0  96253-4 0  9990,2 53431  53.2179 327.0023 0001473  83.8184 276.2976 15.08844698 82326,6917.866,95.437,540.75,538.712,0.0
53431.0,STARLINK-4548,PAYLOAD,2024-01-29 05:07:13,15.08849069,0.0001338,53.2174,322.5364,110.2079,249.9057,1.5634e-05,-3.9e-07,0.0,0 STARLINK-4548,1 53431U 22097AV  24029.21334593 -.00000039  00000-0  15634-4 0  9999,2 53431  53.2174 322.5364 0001338 110.2079 249.9057 15.08849069 81993,6917.853,95.437,540.643,538.792,0.0
53431.0,STARLINK-4548,PAYLOAD,2024-01-30 01:47:13,15.0885444,0.000143,53.2186,318.6691,92.8299,267.2857,0.00014497,2.021e-05,0.0,0 STARLINK-4548,1 53431U 22097AV  24030.07446028  .00002021  00000-0  14497-3 0  9999,2 53431  53.2186 318.6691 0001430  92.8299 267.2857 15.08854440 82606,6917.836,95.437,540.691,538.712,0.0
53431.0,STARLINK-4548,PAYLOAD,2024-01-30 19:16:28,15.08844209,0.000166,53.2197,315.4054,75.7194,284.3982,-5.1745e-06,-3.7e-06,0.0,0 STARLINK-4548,1 53431U 22097AV  24030.80311216 -.00000370  00000-0 -51745-5 0  9996,2 53431  53.2197 315.4054 0001660  75.7194 284.3982 15.08844209 82235,6917.868,95.437,540.881,538.584,0.0
53431.0,STARLINK-4548,PAYLOAD,2024-01-30 22:27:15,15.08840565,0.0001428,53.2191,314.8094,87.8806,272.235,-4.117e-05,-9.43e-06,0.0,0 STARLINK-4548,1 53431U 22097AV  24030.93559311 -.00000943  00000-0 -41170-4 0  9996,2 53431  53.2191 314.8094 0001428  87.8806 272.2350 15.08840565 82733,6917.879,95.438,540.732,538.756,0.0
53431.0,STARLINK-4548,PAYLOAD,2024-01-31 01:38:01,15.08840187,0.0001433,53.2187,314.2145,86.6462,273.4694,-4.7312e-05,-1.041e-05,0.0,0 STARLINK-4548,1 53431U 22097AV  24031.06807279 -.00001041  00000-0 -47312-4 0  9994,2 53431  53.2187 314.2145 0001433  86.6462 273.4694 15.08840187 82756,6917.88,95.438,540.736,538.753,0.0
53431.0,STARLINK-4548,PAYLOAD,2024-01-31 19:07:16,15.08831116,0.0001401,53.218,310.9404,89.7766,270.3387,1.7302e-05,-1.3e-07,0.0,0 STARLINK-4548,1 53431U 22097AV  24031.79671493 -.00000013  00000-0  17302-4 0  9994,2 53431  53.2180 310.9404 0001401  89.7766 270.3387 15.08831116 82382,6917.908,95.438,540.742,538.803,0.0
53431.0,STARLINK-4548,PAYLOAD,2024-02-01 01:28:48,15.08838002,0.0001536,53.2187,309.7534,86.1342,273.9826,5.8851e-05,6.49e-06,0.0,0 STARLINK-4548,1 53431U 22097AV  24032.06167085  .00000649  00000-0  58851-4 0  9990,2 53431  53.2187 309.7534 0001536  86.1342 273.9826 15.08838002 82422,6917.886,95.438,540.814,538.689,0.0
53431.0,STARLINK-4548,PAYLOAD,2024-02-01 23:44:12,15.08834359,0.0001597,53.219,305.5944,92.9775,267.14,9.2931e-05,1.191e-05,0.0,0 STARLINK-4548,1 53431U 22097AV  24032.98903441  .00001191  00000-0  92931-4 0  9995,2 53431  53.2190 305.5944 0001597  92.9775 267.1400 15.08834359 83040,6917.898,95.438,540.867,538.658,0.0
53431.0,STARLINK-4548,PAYLOAD,2024-02-02 21:59:36,15.08837043,0.0001494,53.2185,301.4295,92.4546,267.6617,1.6216e-05,-3e-07,0.0,0 STARLINK-4548,1 53431U 22097AV  24033.91639797 -.00000030  00000-0  16216-4 0  9993,2 53431  53.2185 301.4295 0001494  92.4546 267.6617 15.08837043 83188,6917.889,95.438,540.788,538.721,0.0
53431.0,STARLINK-4548,PAYLOAD,2024-02-03 02:45:46,15.08837959,0.0001467,53.218,300.5353,84.2187,275.8973,1.8133e-05,1e-08,0.0,0 STARLINK-4548,1 53431U 22097AV  24034.11511763  .00000001  00000-0  18133-4 0  9995,2 53431  53.2180 300.5353 0001467  84.2187 275.8973 15.08837959 82730,6917.887,95.438,540.766,538.737,0.0
53431.0,STARLINK-4548,PAYLOAD,2024-02-03 21:50:23,15.08840641,0.0001504,53.218,296.9687,81.7585,278.3578,8.543e-05,1.072e-05,0.0,0 STARLINK-4548,1 53431U 22097AV  24034.90999518  .00001072  00000-0  85430-4 0  9993,2 53431  53.2180 296.9687 0001504  81.7585 278.3578 15.08840641 83332,6917.878,95.438,540.784,538.703,0.0
53431.0,STARLINK-4548,PAYLOAD,2024-02-04 01:01:09,15.08843753,0.0001623,53.2181,296.3742,77.5605,282.5569,0.00010652,1.408e-05,0.0,0 STARLINK-4548,1 53431U 22097AV  24035.04247310  .00001408  00000-0  10652-3 0  9991,2 53431  53.2181 296.3742 0001623  77.5605 282.5569 15.08843753 82879,6917.869,95.437,540.857,538.611,0.0
53431.0,STARLINK-4548,PAYLOAD,2024-02-04 21:41:11,15.08837065,0.0001634,53.2176,292.5082,76.8567,283.2607,7.0564e-06,-1.76e-06,0.0,0 STARLINK-4548,1 53431U 22097AV  24035.90360187 -.00000176  00000-0  70564-5 0  9996,2 53431  53.2176 292.5082 0001634  76.8567 283.2607 15.08837065 83005,6917.889,95.438,540.885,538.624,0.0
53431.0,STARLINK-4548,PAYLOAD,2024-02-05 10:24:15,15.08841255,0.0001586,53.2174,290.1292,86.0487,274.0687,7.5306e-05,9.11e-06,0.0,0 STARLINK-4548,1 53431U 22097AV  24036.43351694  .00000911  00000-0  75306-4 0  9992,2 53431  53.2174 290.1292 0001586  86.0487 274.0687 15.08841255 83563,6917.877,95.437,540.839,538.644,0.0
53431.0,STARLINK-4548,PAYLOAD,2024-02-05 19:56:34,15.08847507,0.0001538,53.2174,288.3446,88.9733,271.1435,4.822e-05,4.8e-06,0.0,0 STARLINK-4548,1 53431U 22097AV  24036.83095282  .00000480  00000-0  48220-4 0  9990,2 53431  53.2174 288.3446 0001538  88.9733 271.1435 15.08847507 83144,6917.857,95.437,540.786,538.658,0.0
53431.0,STARLINK-4548,PAYLOAD,2024-02-05 21:31:57,15.08848218,0.0001576,53.2179,288.0477,86.7087,273.4085,5.6601e-05,6.13e-06,0.0,0 STARLINK-4548,1 53431U 22097AV  24036.89719211  .00000613  00000-0  56601-4 0  9991,2 53431  53.2179 288.0477 0001576  86.7087 273.4085 15.08848218 83630,6917.855,95.437,540.811,538.63,0.0
53431.0,STARLINK-4548,PAYLOAD,2024-02-06 02:18:06,15.08858987,0.0001862,53.2174,287.1531,101.6591,258.4611,3.6708e-05,2.96e-06,0.0,0 STARLINK-4548,1 53431U 22097AV  24037.09590384  .00000296  00000-0  36708-4 0  9995,2 53431  53.2174 287.1531 0001862 101.6591 258.4611 15.08858987 83183,6917.822,95.436,540.975,538.399,0.0
